     2.100          NAVIGATION                              RINEX VERSION / TYPE
fic2rin                                 06/20/2010 00:12:05 PGM / RUN BY / DATE
                                                            END OF HEADER
11 10  6 19 12  0  0.0 -.700303353369D-04 -.250111042988D-11  .000000000000D+00
     .270000000000D+02  .459687500000D+02  .622133057196D-08 -.473345141365D+00
     .251084566116D-05  .107122749323D-01  .104047358036D-04  .515375217628D+04
     .561600000000D+06  .428408384323D-07 -.124536303762D+01  .154599547386D-06
     .888027589594D+00  .141406250000D+03  .809598632016D+00 -.899537469346D-08
     .982183769039D-10  .100000000000D+01  .158800000000D+04  .000000000000D+00
     .240000000000D+01  .000000000000D+00 -.116415321827D-07  .270000000000D+02
     .554406000000D+06  .400000000000D+01
12 10  6 19 12  0  0.0 -.102490652353D-03  .409272615798D-11  .000000000000D+00
     .101000000000D+03 -.201250000000D+02  .443661337418D-08 -.401333636745D+00
    -.107102096081D-05  .349756062496D-02  .563822686672D-05  .515366877556D+04
     .561600000000D+06  .447034835815D-07 -.309399195595D+01 -.856816768646D-07
     .971388352693D+00  .278125000000D+03 -.405582739360D+00 -.814462497061D-08
     .114647632677D-09  .100000000000D+01  .158800000000D+04  .000000000000D+00
     .340000000000D+01  .000000000000D+00 -.116415321827D-07  .101000000000D+03
     .554406000000D+06  .400000000000D+01
13 10  6 19 12  0  0.0  .303069129586D-03 -.454747350886D-12  .000000000000D+00
     .460000000000D+02 -.475625000000D+02  .380515850013D-08  .209920116962D+01
    -.255182385445D-05  .451332551893D-02  .791996717453D-05  .515374790001D+04
     .561600000000D+06  .484287738800D-07  .115418674001D+01 -.763684511185D-07
     .992662887137D+00  .236531250000D+03  .174440333148D+01 -.778139555493D-08
    -.439661170795D-09  .100000000000D+01  .158800000000D+04  .000000000000D+00
     .240000000000D+01  .000000000000D+00 -.107102096081D-07  .460000000000D+02
     .554406000000D+06  .400000000000D+01
14 10  6 19 12  0  0.0  .587282702327D-04  .420641299570D-11  .000000000000D+00
     .380000000000D+02 -.329687500000D+02  .392052044827D-08  .198541682922D+01
    -.189058482647D-05  .513135234360D-02  .788271427155D-05  .515375447273D+04
     .561600000000D+06 -.912696123123D-07  .113223468139D+01 -.856816768646D-07
     .985921946418D+00  .242500000000D+03 -.214398133633D+01 -.781782564382D-08
    -.316798910232D-09  .100000000000D+01  .158800000000D+04  .000000000000D+00
     .240000000000D+01  .000000000000D+00 -.884756445885D-08  .380000000000D+02
     .554406000000D+06  .400000000000D+01
16 10  6 19 12  0  0.0 -.829431228340D-04 -.363797880709D-11  .000000000000D+00
     .490000000000D+02 -.246875000000D+02  .440161191623D-08 -.271854758777D+01
    -.119768083096D-05  .594749685843D-02  .583194196224D-05  .515378060150D+04
     .561600000000D+06 -.372529029846D-07 -.307654756925D+01  .558793544769D-08
     .972594939729D+00  .275656250000D+03 -.198515325234D+00 -.807176479283D-08
     .146791828755D-09  .100000000000D+01  .158800000000D+04  .000000000000D+00
     .240000000000D+01  .000000000000D+00 -.977888703346D-08  .490000000000D+02
     .554406000000D+06  .400000000000D+01
17 10  6 19 12  0  0.0  .157459173352D-03  .204636307899D-11  .000000000000D+00
     .470000000000D+02 -.471250000000D+02  .449661587353D-08  .243424902998D+01
    -.226870179176D-05  .546470319387D-02  .972487032413D-05  .515361864471D+04
     .561600000000D+06 -.521540641785D-07 -.203378147292D+01 -.141561031342D-06
     .960084686055D+00  .188750000000D+03 -.249896915047D+01 -.798533262116D-08
    -.152863510236D-09  .100000000000D+01  .158800000000D+04  .000000000000D+00
     .240000000000D+01  .000000000000D+00 -.102445483208D-07  .470000000000D+02
     .554406000000D+06  .400000000000D+01
19 10  6 19 12  0  0.0 -.433935783803D-04 -.284217094304D-11  .000000000000D+00
     .160000000000D+02 -.320000000000D+02  .455554689967D-08  .176651734245D+01
    -.168755650520D-05  .660303910263D-02  .991113483906D-05  .515375170135D+04
     .561600000000D+06  .800937414169D-07 -.197880311264D+01  .931322574615D-07
     .957670781986D+00  .185312500000D+03 -.143449583388D+00 -.803247744207D-08
    -.253224833545D-09  .100000000000D+01  .158800000000D+04  .000000000000D+00
     .240000000000D+01  .000000000000D+00 -.149011611938D-07  .160000000000D+02
     .554406000000D+06  .400000000000D+01
20 10  6 19 12  0  0.0  .544423237443D-04 -.568434188608D-12  .000000000000D+00
     .770000000000D+02  .462812500000D+02  .552022993973D-08 -.220478493401D+01
     .244751572609D-05  .418871000875D-02  .435672700405D-05  .515358734322D+04
     .561600000000D+06  .428408384323D-07  .547376693008D-02  .149011611938D-07
     .937227590240D+00  .284031250000D+03  .132200296634D+01 -.865643200371D-08
     .628597612185D-10  .100000000000D+01  .158800000000D+04  .000000000000D+00
     .240000000000D+01  .000000000000D+00 -.791624188423D-08  .770000000000D+02
     .554406000000D+06  .400000000000D+01
21 10  6 19 12  0  0.0 -.681644305587D-04 -.261479726760D-11  .000000000000D+00
     .800000000000D+01  .586562500000D+02  .514985736937D-08 -.128969012104D+01
     .309944152832D-05  .166659720708D-01  .859051942825D-05  .515366659546D+04
     .561600000000D+06  .344589352608D-06 -.997098786835D+00 -.335276126862D-07
     .932271490038D+00  .192468750000D+03 -.247011821596D+01 -.828570227561D-08
     .274297139863D-09  .100000000000D+01  .158800000000D+04  .000000000000D+00
     .240000000000D+01  .000000000000D+00 -.121071934700D-07  .800000000000D+01
     .554406000000D+06  .400000000000D+01
22 10  6 19 12  0  0.0  .169378705323D-03 -.682121026330D-12  .000000000000D+00
     .510000000000D+02  .359062500000D+02  .545272712797D-08  .296144675619D+01
     .180304050446D-05  .537584815174D-02  .430457293987D-05  .515371649170D+04
     .561600000000D+06  .782310962677D-07  .642585932455D-01 -.139698386192D-06
     .935025291419D+00  .283125000000D+03 -.194261713906D+01 -.858714340328D-08
    -.803604901941D-10  .100000000000D+01  .158800000000D+04  .000000000000D+00
     .240000000000D+01  .000000000000D+00 -.176951289177D-07  .510000000000D+02
     .554406000000D+06  .400000000000D+01
23 10  6 19 12  0  0.0  .366397202015D-03 -.147792889038D-11  .000000000000D+00
     .450000000000D+02 -.395000000000D+02  .444482800207D-08  .125214704664D+01
    -.187754631042D-05  .678519450594D-02  .738911330700D-05  .515368199921D+04
     .561600000000D+06  .931322574615D-07  .109287560192D+01  .353902578354D-07
     .967754072122D+00  .235437500000D+03  .302598596931D+01 -.819069831832D-08
    -.480377152494D-09  .100000000000D+01  .158800000000D+04  .000000000000D+00
     .240000000000D+01  .000000000000D+00 -.200234353542D-07  .450000000000D+02
     .554406000000D+06  .400000000000D+01
24 10  6 19 12  0  0.0  .297478400171D-03  .318323145621D-11  .000000000000D+00
     .180000000000D+02  .688437500000D+02  .481627204563D-08  .226692956528D+01
     .336766242981D-05  .568442407530D-02  .918656587601D-05  .515485151482D+04
     .561600000000D+06  .447034835815D-07 -.958203474347D+00  .130385160446D-06
     .948895671233D+00  .193593750000D+03 -.467948122043D+00 -.812855287257D-08
     .131791203918D-09  .100000000000D+01  .158800000000D+04  .000000000000D+00
     .240000000000D+01  .000000000000D+00 -.139698386192D-08  .180000000000D+02
     .554406000000D+06  .400000000000D+01
26 10  6 19 12  0  0.0 -.684345141053D-04 -.568434188608D-11  .000000000000D+00
     .820000000000D+02 -.391875000000D+02  .405695470273D-08  .473264828625D+00
    -.174157321453D-05  .193994723959D-01  .755861401558D-05  .515237175369D+04
     .561600000000D+06 -.266358256340D-06  .115065945873D+01  .949949026108D-07
     .990387167384D+00  .253500000000D+03  .110065230181D+01 -.818462663684D-08
    -.435018120251D-09  .100000000000D+01  .158800000000D+04  .000000000000D+00
     .240000000000D+01  .000000000000D+00 -.605359673500D-08  .820000000000D+02
     .554406000000D+06  .400000000000D+01
27 10  6 19 12  0  0.0  .162426382303D-03  .341060513165D-11  .000000000000D+00
     .129000000000D+03 -.188750000000D+02  .394802159380D-08  .202020212310D+01
    -.110454857349D-05  .215190914460D-01  .848434865475D-05  .515361858368D+04
     .561600000000D+06  .376254320145D-06  .207936808493D+01 -.154599547386D-06
     .978481332944D+00  .214906250000D+03 -.140870832005D+01 -.754209987302D-08
    -.821462788651D-11  .100000000000D+01  .158800000000D+04  .000000000000D+00
     .240000000000D+01  .000000000000D+00 -.419095158577D-08  .129000000000D+03
     .554406000000D+06  .400000000000D+01
28 10  6 19 12  0  0.0 -.130785629153D-04  .113686837722D-11  .000000000000D+00
     .530000000000D+02 -.208750000000D+02  .434160941689D-08  .308238663414D+01
    -.109709799290D-05  .159741257085D-01  .575743615627D-05  .515366795921D+04
     .561600000000D+06  .931322574615D-07 -.306886721423D+01 -.106170773506D-06
     .970838147740D+00  .271593750000D+03 -.195268533480D+01 -.779139597149D-08
     .179650340301D-09  .100000000000D+01  .158800000000D+04  .000000000000D+00
     .240000000000D+01  .000000000000D+00 -.107102096081D-07  .530000000000D+02
     .554406000000D+06  .400000000000D+01
29 10  6 19 12  0  0.0  .128537882119D-03  .284217094304D-11  .000000000000D+00
     .151000000000D+03 -.382187500000D+02  .445661420730D-08 -.112555867375D+01
    -.194273889065D-05  .300744851120D-02  .948458909988D-05  .515372416115D+04
     .561600000000D+06 -.614672899246D-07 -.202550876627D+01  .651925802231D-07
     .960420358460D+00  .198656250000D+03 -.127636047964D+01 -.802604860285D-08
    -.542879755978D-10  .100000000000D+01  .158800000000D+04  .000000000000D+00
     .240000000000D+01  .000000000000D+00 -.884756445885D-08  .151000000000D+03
     .554406000000D+06  .400000000000D+01
